[{"OBJECT_NAME":"STARLINK-4675","OBJECT_ID":"2022-104P","EPOCH":"2026-03-09T17:37:36.637248","MEAN_MOTION":15.08838402,"ECCENTRICITY":0.00011377,"INCLINATION":53.2157,"RA_OF_ASC_NODE":243.775,"ARG_OF_PERICENTER":90.1206,"MEAN_ANOMALY":269.9916,"EPHEMERIS_TYPE":0,"CLASSIFICATION_TYPE":"U","NORAD_CAT_ID":53601,"ELEMENT_SET_NO":999,"REV_AT_EPOCH":19562,"BSTAR":7.1024646e-5,"MEAN_MOTION_DOT":8.43e-6,"MEAN_MOTION_DDOT":0},{"OBJECT_NAME":"OBJECT E","OBJECT_ID":"2025-013E","EPOCH":"2026-03-09T23:59:52.369152","MEAN_MOTION":15.10347623,"ECCENTRICITY":0.00085591,"INCLINATION":97.6477,"RA_OF_ASC_NODE":238.3736,"ARG_OF_PERICENTER":6.9171,"MEAN_ANOMALY":353.2174,"EPHEMERIS_TYPE":0,"CLASSIFICATION_TYPE":"U","NORAD_CAT_ID":62733,"ELEMENT_SET_NO":999,"REV_AT_EPOCH":6224,"BSTAR":0.00032920786,"MEAN_MOTION_DOT":5.34e-5,"MEAN_MOTION_DDOT":0}]
